{
  "type": "FeatureCollection",
  "features": [
    {
      "type": "Feature",
      "properties": {
        "norad_id": 54259,
        "name": "EUTELSAT 10B",
        "group": "eutelsat",
        "lat": -0.024486952654696754,
        "lon": -70.24369336421924,
        "alt_km": 35788.94838450144,
        "timestamp": "2025-12-02T13:52:16.947011+00:00",
        "meta_object_name": "EUTELSAT 10B",
        "meta_object_id": "2022-157A",
        "meta_epoch": "2025-12-02T05:16:13.959264",
        "meta_mean_motion": 1.00268416,
        "meta_eccentricity": 0.00010845,
        "meta_inclination": 0.0577,
        "meta_ra_of_asc_node": 104.8951,
        "meta_arg_of_pericenter": 69.3225,
        "meta_mean_anomaly": 346.1941,
        "meta_ephemeris_type": 0,
        "meta_classification_type": "U",
        "meta_norad_cat_id": 54259,
        "meta_element_set_no": 999,
        "meta_rev_at_epoch": 1105,
        "meta_bstar": 0,
        "meta_mean_motion_dot": 8.9e-07,
        "meta_mean_motion_ddot": 0,
        "tle_line1": "1 54259U 22157A   25336.21960601  .00000089  00000+0  00000+0 0  9991",
        "tle_line2": "2 54259   0.0577 104.8951 0001084  69.3225 346.1941  1.00268416 11057"
      },
      "geometry": {
        "type": "Point",
        "coordinates": [
          -70.24369336421924,
          -0.024486952654696754
        ]
      }
    },
    {
      "type": "Feature",
      "properties": {
        "norad_id": 59346,
        "name": "EUTELSAT 36D",
        "group": "eutelsat",
        "lat": 0.006942596026431494,
        "lon": -44.39378009719135,
        "alt_km": 35784.80544848109,
        "timestamp": "2025-12-02T13:52:16.947023+00:00",
        "meta_object_name": "EUTELSAT 36D",
        "meta_object_id": "2024-059A",
        "meta_epoch": "2025-12-02T06:56:38.710752",
        "meta_mean_motion": 1.00269594,
        "meta_eccentricity": 4.64e-05,
        "meta_inclination": 0.0132,
        "meta_ra_of_asc_node": 300.2901,
        "meta_arg_of_pericenter": 357.134,
        "meta_mean_anomaly": 274.017,
        "meta_ephemeris_type": 0,
        "meta_classification_type": "U",
        "meta_norad_cat_id": 59346,
        "meta_element_set_no": 999,
        "meta_rev_at_epoch": 617,
        "meta_bstar": 0,
        "meta_mean_motion_dot": 1.77e-06,
        "meta_mean_motion_ddot": 0,
        "tle_line1": "1 59346U 24059A   25336.28933693  .00000177  00000+0  00000+0 0  9992",
        "tle_line2": "2 59346   0.0132 300.2901 0000464 357.1340 274.0170  1.00269594  6178"
      },
      "geometry": {
        "type": "Point",
        "coordinates": [
          -44.39378009719135,
          0.006942596026431494
        ]
      }
    }
  ]
}